OBJECT_NAME,OBJECT_ID,EPOCH,MEAN_MOTION,ECCENTRICITY,INCLINATION,RA_OF_ASC_NODE,ARG_OF_PERICENTER,MEAN_ANOMALY,EPHEMERIS_TYPE,CLASSIFICATION_TYPE,NORAD_CAT_ID,ELEMENT_SET_NO,REV_AT_EPOCH,BSTAR,MEAN_MOTION_DOT,MEAN_MOTION_DDOT
STARLINK-37501,2026-119A,2026-06-06T04:00:03.998880,15.85327492,.0001022,97.2831,182.3674,90.5682,104.5279,0,U,69296,999,211,-.3082E-2,-.676197E-2,0
STARLINK-37496,2026-119B,2026-06-06T04:00:03.998880,15.85206101,.0001396,97.2830,182.3688,70.6578,127.5990,0,U,69297,999,211,-.85397E-2,-.1740071E-1,0
STARLINK-37519,2026-119C,2026-06-06T04:00:03.998880,15.86072479,.000098,97.2831,182.3717,94.1397,111.1298,0,U,69298,999,211,-.34272E-2,-.771269E-2,0
STARLINK-37455,2026-119D,2026-06-06T04:00:03.998880,15.85443402,.0001451,97.2829,182.3698,72.1181,129.4221,0,U,69299,999,211,-.80614E-2,-.1672061E-1,0
STARLINK-37456,2026-119E,2026-06-06T04:00:03.998880,15.85882802,.0001336,97.2830,182.3726,70.3528,137.9220,0,U,69300,999,212,-.7852E-2,-.1664786E-1,0
STARLINK-37630,2026-119F,2026-06-06T04:00:03.998880,15.86078530,.000089,97.2832,182.3743,86.1541,125.2699,0,U,69301,999,227,-.38156E-2,-.851159E-2,0
STARLINK-37804,2026-119G,2026-06-06T04:00:03.998880,15.86368439,.0001403,97.2832,182.3754,69.4979,145.1291,0,U,69302,999,227,-.76861E-2,-.1668319E-1,0
STARLINK-37730,2026-119H,2026-06-06T04:00:03.998880,15.86544675,.0001006,97.2833,182.3768,85.4312,132.3151,0,U,69303,999,227,-.37138E-2,-.847864E-2,0
STARLINK-37731,2026-119J,2026-06-06T04:00:03.998880,15.87669579,.0001472,97.2832,182.3777,81.5900,139.0132,0,U,69304,999,227,-.86095E-2,-.19889E-1,0
STARLINK-37734,2026-119K,2026-06-06T04:00:03.998880,15.87086763,.0001376,97.2836,182.3791,79.2741,144.5238,0,U,69305,999,227,-.74619E-2,-.167667E-1,0
STARLINK-37701,2026-119L,2026-06-06T04:00:03.998880,15.88081307,.0001386,97.2834,182.3801,73.5489,152.8788,0,U,69306,999,227,-.99892E-2,-.2298198E-1,0
STARLINK-37732,2026-119M,2026-06-06T04:00:03.998880,15.87897323,.0001155,97.2835,182.3816,70.8854,158.4736,0,U,69307,999,227,-.96421E-2,-.221307E-1,0
STARLINK-37689,2026-119N,2026-06-06T04:00:03.998880,15.88199650,.0000916,97.2832,182.3823,38.9004,193.1652,0,U,69308,999,227,-.11318E-1,-.2631803E-1,0
STARLINK-37619,2026-119P,2026-06-06T04:00:03.998880,15.88342038,.0001192,97.2833,182.3836,67.7077,167.1570,0,U,69309,999,227,-.85398E-2,-.203293E-1,0
STARLINK-37794,2026-119Q,2026-06-06T04:00:03.998880,15.88683293,.0000918,97.2835,182.3849,72.6497,164.8816,0,U,69310,999,227,-.25583E-2,-.662679E-2,0
STARLINK-37795,2026-119R,2026-06-06T04:00:03.998880,15.88508374,.0001199,97.2834,182.3856,66.2105,174.0903,0,U,69311,999,227,-.45137E-2,-.110282E-1,0
STARLINK-37790,2026-119S,2026-06-06T04:00:03.998880,15.88621642,.0001111,97.2832,182.3870,79.1547,163.8232,0,U,69312,999,227,-.33519E-2,-.848019E-2,0
STARLINK-37676,2026-119T,2026-06-06T04:00:03.998880,15.89314909,.0000892,97.2835,182.3881,72.7359,172.9626,0,U,69313,999,227,-.24557E-2,-.656967E-2,0
STARLINK-37617,2026-119U,2026-06-06T04:00:03.998880,15.89501106,.000088,97.2834,182.3888,69.9282,178.6466,0,U,69314,999,227,-.24238E-2,-.702425E-2,.15181E-3
STARLINK-37627,2026-119V,2026-06-06T04:00:03.998880,15.89714003,.000087,97.2834,182.3903,72.6954,178.4129,0,U,69315,999,227,-.24242E-2,-.710046E-2,.15524E-3
STARLINK-37738,2026-119W,2026-06-06T04:00:03.998880,15.89794039,.0001286,97.2834,182.3916,85.8441,167.8459,0,U,69316,999,227,-.81451E-2,-.2369958E-1,.1471E-2
