[ {"name": "STARLINK-37501", "line1": "1 69296U 26119A   26157.16671295 -.00676197  00000+0 -30820-2 0  9991", "line2": "2 69296  97.2831 182.3674 0001022  90.5682 104.5279 15.85327492  2118"}, {"name": "STARLINK-37496", "line1": "1 69297U 26119B   26157.16671295 -.01740071  00000+0 -85397-2 0  9995", "line2": "2 69297  97.2830 182.3688 0001396  70.6578 127.5990 15.85206101  2118"}, {"name": "STARLINK-37519", "line1": "1 69298U 26119C   26157.16671295 -.00771269  00000+0 -34272-2 0  9994", "line2": "2 69298  97.2831 182.3717 0000980  94.1397 111.1298 15.86072479  2111"}, {"name": "STARLINK-37455", "line1": "1 69299U 26119D   26157.16671295 -.01672061  00000+0 -80614-2 0  9997", "line2": "2 69299  97.2829 182.3698 0001451  72.1181 129.4221 15.85443402  2113"}, {"name": "STARLINK-37456", "line1": "1 69300U 26119E   26157.16671295 -.01664786  00000+0 -78520-2 0  9998", "line2": "2 69300  97.2830 182.3726 0001336  70.3528 137.9220 15.85882802  2122"}, {"name": "STARLINK-37630", "line1": "1 69301U 26119F   26157.16671295 -.00851159  00000+0 -38156-2 0  9991", "line2": "2 69301  97.2832 182.3743 0000890  86.1541 125.2699 15.86078530  2270"}, {"name": "STARLINK-37804", "line1": "1 69302U 26119G   26157.16671295 -.01668319  00000+0 -76861-2 0  9992", "line2": "2 69302  97.2832 182.3754 0001403  69.4979 145.1291 15.86368439  2272"}, {"name": "STARLINK-37730", "line1": "1 69303U 26119H   26157.16671295 -.00847864  00000+0 -37138-2 0  9990", "line2": "2 69303  97.2833 182.3768 0001006  85.4312 132.3151 15.86544675  2278"}, {"name": "STARLINK-37731", "line1": "1 69304U 26119J   26157.16671295 -.01988900  00000+0 -86095-2 0  9995", "line2": "2 69304  97.2832 182.3777 0001472  81.5900 139.0132 15.87669579  2270"}, {"name": "STARLINK-37734", "line1": "1 69305U 26119K   26157.16671295 -.01676670  00000+0 -74619-2 0  9993", "line2": "2 69305  97.2836 182.3791 0001376  79.2741 144.5238 15.87086763  2277"}, {"name": "STARLINK-37701", "line1": "1 69306U 26119L   26157.16671295 -.02298198  00000+0 -99892-2 0  9990", "line2": "2 69306  97.2834 182.3801 0001386  73.5489 152.8788 15.88081307  2277"}, {"name": "STARLINK-37732", "line1": "1 69307U 26119M   26157.16671295 -.02213070  00000+0 -96421-2 0  9992", "line2": "2 69307  97.2835 182.3816 0001155  70.8854 158.4736 15.87897323  2272"}, {"name": "STARLINK-37689", "line1": "1 69308U 26119N   26157.16671295 -.02631803  00000+0 -11318-1 0  9992", "line2": "2 69308  97.2832 182.3823 0000916  38.9004 193.1652 15.88199650  2276"}, {"name": "STARLINK-37619", "line1": "1 69309U 26119P   26157.16671295 -.02032930  00000+0 -85398-2 0  9999", "line2": "2 69309  97.2833 182.3836 0001192  67.7077 167.1570 15.88342038  2279"}, {"name": "STARLINK-37794", "line1": "1 69310U 26119Q   26157.16671295 -.00662679  00000+0 -25583-2 0  9998", "line2": "2 69310  97.2835 182.3849 0000918  72.6497 164.8816 15.88683293  2271"}, {"name": "STARLINK-37795", "line1": "1 69311U 26119R   26157.16671295 -.01102820  00000+0 -45137-2 0  9994", "line2": "2 69311  97.2834 182.3856 0001199  66.2105 174.0903 15.88508374  2272"}, {"name": "STARLINK-37790", "line1": "1 69312U 26119S   26157.16671295 -.00848019  00000+0 -33519-2 0  9992", "line2": "2 69312  97.2832 182.3870 0001111  79.1547 163.8232 15.88621642  2279"}, {"name": "STARLINK-37676", "line1": "1 69313U 26119T   26157.16671295 -.00656967  00000+0 -24557-2 0  9994", "line2": "2 69313  97.2835 182.3881 0000892  72.7359 172.9626 15.89314909  2274"}, {"name": "STARLINK-37617", "line1": "1 69314U 26119U   26157.16671295 -.00702425  15181-3 -24238-2 0  9992", "line2": "2 69314  97.2834 182.3888 0000880  69.9282 178.6466 15.89501106  2273"}, {"name": "STARLINK-37627", "line1": "1 69315U 26119V   26157.16671295 -.00710046  15524-3 -24242-2 0  9997", "line2": "2 69315  97.2834 182.3903 0000870  72.6954 178.4129 15.89714003  2274"}, {"name": "STARLINK-37738", "line1": "1 69316U 26119W   26157.16671295 -.02369958  14710-2 -81451-2 0  9992", "line2": "2 69316  97.2834 182.3916 0001286  85.8441 167.8459 15.89794039  2273"}]